0 ARIANE 44L R/B
1 24654U 96063C   13282.39351745  .00000923  00000-0  16150-2 0   314
2 24654 003.8908 185.2152 7179794 182.1684 008.4440 02.35181899142114
0 ARIANE 44L R/B
1 24654U 96063C   13286.58996233  .00001018  00000-0  18577-2 0   328
2 24654 003.8886 183.3671 7179728 185.7785 321.3833 02.35190558142218
0 ARIANE 44L R/B
1 24654U 96063C   13287.50419042  .00000914  00000-0  16929-2 0   333
2 24654 003.8875 182.9598 7179744 186.5683 015.4327 02.35193860142233
0 ARIANE 44L R/B
1 24654U 96063C   13288.34720826  .00001128  00000-0  20030-2 0   348
2 24654 003.8854 182.5908 7179548 187.2921 009.1975 02.35198429142253
0 ARIANE 44L R/B
1 24654U 96063C   13291.32068816  .00000978  00000-0  16955-2 0   358
2 24654 003.8840 181.2920 7179426 189.8397 006.8704 02.35206261142324
0 ARIANE 44L R/B
1 24654U 96063C   13293.45339846  .00000965  00000-0  16507-2 0   368
2 24654 003.8825 180.3365 7179502 191.6855 012.7109 02.35211652142375
0 ARIANE 44L R/B
1 24654U 96063C   13295.61464767  .00000973  00000-0  17028-2 0   378
2 24654 003.8807 179.4051 7179309 193.5227 042.7615 02.35217240142425
